XRISM                   
1 57800U 23137A   23359.15658884  .00007166  00000+0  57032-3 0  9992
2 57800  31.0053  44.7874 0010040 273.3743  86.5743 14.99025930 16385
